{"type": "FeatureCollection", "features": [ {"type": "Feature", "properties": {"norad_id": 33905, "name": "COSMOS 2251 DEB", "group": "cosmos-2251-debris", "lat": -14.947984615467732, "lon": 119.77718057440985, "alt_km": 737.4082675638174, "timestamp": "2025-12-24T05:51:20.002384+00:00", "meta": {"OBJECT_NAME": "COSMOS 2251 DEB", "OBJECT_ID": "1993-036DJ", "EPOCH": "2025-12-23T12:47:16.078272", "MEAN_MOTION": 14.3542029, "ECCENTRICITY": 0.00582212, "INCLINATION": 73.8868, "RA_OF_ASC_NODE": 296.6667, "ARG_OF_PERICENTER": 183.8757, "MEAN_ANOMALY": 297.9829, "EPHEMERIS_TYPE": 0, "CLASSIFICATION_TYPE": "U", "NORAD_CAT_ID": 33905, "ELEMENT_SET_NO": 999, "REV_AT_EPOCH": 87842, "BSTAR": 0.00050313062, "MEAN_MOTION_DOT": 1.446e-05, "MEAN_MOTION_DDOT": 0}, "tle": {"line1": "1 33905U 93036DJ  25357.53282498  .00001446  00000+0  50313-3 0  9993", "line2": "2 33905  73.8868 296.6667 0058221 183.8757 297.9829 14.35420290878426"}}, "geometry": {"type": "Point", "coordinates": [119.77718057440985, -14.947984615467732]}}, {"type": "Feature", "properties": {"norad_id": 33906, "name": "COSMOS 2251 DEB", "group": "cosmos-2251-debris", "lat": -71.55332358898737, "lon": 178.75447548384835, "alt_km": 698.4750881141299, "timestamp": "2025-12-24T05:51:20.002394+00:00", "meta": {"OBJECT_NAME": "COSMOS 2251 DEB", "OBJECT_ID": "1993-036DK", "EPOCH": "2025-12-23T22:21:39.383712", "MEAN_MOTION": 14.5726796, "ECCENTRICITY": 0.00369125, "INCLINATION": 74.0311, "RA_OF_ASC_NODE": 300.2042, "ARG_OF_PERICENTER": 327.9181, "MEAN_ANOMALY": 95.5281, "EPHEMERIS_TYPE": 0, "CLASSIFICATION_TYPE": "U", "NORAD_CAT_ID": 33906, "ELEMENT_SET_NO": 999, "REV_AT_EPOCH": 88171, "BSTAR": 0.0018521975, "MEAN_MOTION_DOT": 8.435e-05, "MEAN_MOTION_DDOT": 0}, "tle": {"line1": "1 33906U 93036DK  25357.93170583  .00008435  00000+0  18522-2 0  9999", "line2": "2 33906  74.0311 300.2042 0036912 327.9181  95.5281 14.57267960881714"}}, "geometry": {"type": "Point", "coordinates": [178.75447548384835, -71.55332358898737]}}, {"type": "Feature", "properties": {"norad_id": 33907, "name": "COSMOS 2251 DEB", "group": "cosmos-2251-debris", "lat": -31.1856020256495, "lon": -157.28959467329193, "alt_km": 862.9094347188557, "timestamp": "2025-12-24T05:51:20.002404+00:00", "meta": {"OBJECT_NAME": "COSMOS 2251 DEB", "OBJECT_ID": "1993-036DL", "EPOCH": "2025-12-23T10:57:11.276064", "MEAN_MOTION": 14.30599718, "ECCENTRICITY": 0.01119299, "INCLINATION": 74.07, "RA_OF_ASC_NODE": 14.1856, "ARG_OF_PERICENTER": 66.4229, "MEAN_ANOMALY": 50.7129, "EPHEMERIS_TYPE": 0, "CLASSIFICATION_TYPE": "U", "NORAD_CAT_ID": 33907, "ELEMENT_SET_NO": 999, "REV_AT_EPOCH": 86733, "BSTAR": 0.0019119611, "MEAN_MOTION_DOT": 5.323e-05, "MEAN_MOTION_DDOT": 0}, "tle": {"line1": "1 33907U 93036DL  25357.45638051  .00005323  00000+0  19120-2 0  9994", "line2": "2 33907  74.0700  14.1856 0111929  66.4229  50.7129 14.30599718867337"}}, "geometry": {"type": "Point", "coordinates": [-157.28959467329193, -31.1856020256495]}}, {"type": "Feature", "properties": {"norad_id": 33908, "name": "COSMOS 2251 DEB", "group": "cosmos-2251-debris", "lat": 3.888090142939667, "lon": -173.51918096250182, "alt_km": 1018.4625917882886, "timestamp": "2025-12-24T05:51:20.002414+00:00", "meta": {"OBJECT_NAME": "COSMOS 2251 DEB", "OBJECT_ID": "1993-036DM", "EPOCH": "2025-12-23T12:46:34.804992", "MEAN_MOTION": 14.07422421, "ECCENTRICITY": 0.02223373, "INCLINATION": 73.8365, "RA_OF_ASC_NODE": 186.6139, "ARG_OF_PERICENTER": 208.1333, "MEAN_ANOMALY": 150.7648, "EPHEMERIS_TYPE": 0, "CLASSIFICATION_TYPE": "U", "NORAD_CAT_ID": 33908, "ELEMENT_SET_NO": 999, "REV_AT_EPOCH": 85625, "BSTAR": 0.0022813568, "MEAN_MOTION_DOT": 4.786e-05, "MEAN_MOTION_DDOT": 0}, "tle": {"line1": "1 33908U 93036DM  25357.53234728  .00004786  00000+0  22814-2 0  9993", "line2": "2 33908  73.8365 186.6139 0222337 208.1333 150.7648 14.07422421856254"}}, "geometry": {"type": "Point", "coordinates": [-173.51918096250182, 3.888090142939667]}}, {"type": "Feature", "properties": {"norad_id": 33911, "name": "COSMOS 2251 DEB", "group": "cosmos-2251-debris", "lat": 46.526474145652415, "lon": 156.95710898277238, "alt_km": 631.2812634245638, "timestamp": "2025-12-24T05:51:20.002425+00:00", "meta": {"OBJECT_NAME": "COSMOS 2251 DEB", "OBJECT_ID": "1993-036DQ", "EPOCH": "2025-12-22T20:07:55.852896", "MEAN_MOTION": 14.75092709, "ECCENTRICITY": 0.00139875, "INCLINATION": 74.0904, "RA_OF_ASC_NODE": 142.1847, "ARG_OF_PERICENTER": 75.4181, "MEAN_ANOMALY": 74.9634, "EPHEMERIS_TYPE": 0, "CLASSIFICATION_TYPE": "U", "NORAD_CAT_ID": 33911, "ELEMENT_SET_NO": 999, "REV_AT_EPOCH": 88793, "BSTAR": 0.0021527339, "MEAN_MOTION_DOT": 0.00014537, "MEAN_MOTION_DDOT": 0}, "tle": {"line1": "1 33911U 93036DQ  25356.83884089  .00014537  00000+0  21527-2 0  9995", "line2": "2 33911  74.0904 142.1847 0013987  75.4181  74.9634 14.75092709887936"}}, "geometry": {"type": "Point", "coordinates": [156.95710898277238, 46.526474145652415]}}, {"type": "Feature", "properties": {"norad_id": 33912, "name": "COSMOS 2251 DEB", "group": "cosmos-2251-debris", "lat": 57.75995415781791, "lon": -164.9491343709117, "alt_km": 721.3422009717215, "timestamp": "2025-12-24T05:51:20.002434+00:00", "meta": {"OBJECT_NAME": "COSMOS 2251 DEB", "OBJECT_ID": "1993-036DR", "EPOCH": "2025-12-23T18:05:11.992992", "MEAN_MOTION": 14.51954389, "ECCENTRICITY": 0.00113107, "INCLINATION": 74.0328, "RA_OF_ASC_NODE": 168.9767, "ARG_OF_PERICENTER": 248.0972, "MEAN_ANOMALY": 131.419, "EPHEMERIS_TYPE": 0, "CLASSIFICATION_TYPE": "U", "NORAD_CAT_ID": 33912, "ELEMENT_SET_NO": 999, "REV_AT_EPOCH": 88593, "BSTAR": 0.00077575436, "MEAN_MOTION_DOT": 3.107e-05, "MEAN_MOTION_DDOT": 0}, "tle": {"line1": "1 33912U 93036DR  25357.75361103  .00003107  00000+0  77575-3 0  9991", "line2": "2 33912  74.0328 168.9767 0011310 248.0972 131.4190 14.51954389885937"}}, "geometry": {"type": "Point", "coordinates": [-164.9491343709117, 57.75995415781791]}}, {"type": "Feature", "properties": {"norad_id": 33913, "name": "COSMOS 2251 DEB", "group": "cosmos-2251-debris", "lat": 6.1207082276277065, "lon": 163.85047194550637, "alt_km": 740.382689017053, "timestamp": "2025-12-24T05:51:20.002445+00:00", "meta": {"OBJECT_NAME": "COSMOS 2251 DEB", "OBJECT_ID": "1993-036DS", "EPOCH": "2025-12-23T11:54:02.602080", "MEAN_MOTION": 14.48527536, "ECCENTRICITY": 0.00481616, "INCLINATION": 74.0323, "RA_OF_ASC_NODE": 163.4923, "ARG_OF_PERICENTER": 264.0515, "MEAN_ANOMALY": 162.2664, "EPHEMERIS_TYPE": 0, "CLASSIFICATION_TYPE": "U", "NORAD_CAT_ID": 33913, "ELEMENT_SET_NO": 999, "REV_AT_EPOCH": 88613, "BSTAR": 0.00051590174, "MEAN_MOTION_DOT": 1.937e-05, "MEAN_MOTION_DDOT": 0}, "tle": {"line1": "1 33913U 93036DS  25357.49586345  .00001937  00000+0  51590-3 0  9998", "line2": "2 33913  74.0323 163.4923 0048161 264.0515 162.2664 14.48527536886139"}}, "geometry": {"type": "Point", "coordinates": [163.85047194550637, 6.1207082276277065]}}, {"type": "Feature", "properties": {"norad_id": 33914, "name": "COSMOS 2251 DEB", "group": "cosmos-2251-debris", "lat": 41.139031914475396, "lon": 10.5624915899669, "alt_km": 851.5791834975971, "timestamp": "2025-12-24T05:51:20.002455+00:00", "meta": {"OBJECT_NAME": "COSMOS 2251 DEB", "OBJECT_ID": "1993-036DT", "EPOCH": "2025-12-23T10:57:10.731744", "MEAN_MOTION": 13.71990933, "ECCENTRICITY": 0.03007996, "INCLINATION": 74.0911, "RA_OF_ASC_NODE": 357.4335, "ARG_OF_PERICENTER": 97.8752, "MEAN_ANOMALY": 19.4454, "EPHEMERIS_TYPE": 0, "CLASSIFICATION_TYPE": "U", "NORAD_CAT_ID": 33914, "ELEMENT_SET_NO": 999, "REV_AT_EPOCH": 84228, "BSTAR": 0.00023807311, "MEAN_MOTION_DOT": 2.79e-06, "MEAN_MOTION_DDOT": 0}, "tle": {"line1": "1 33914U 93036DT  25357.45637421  .00000279  00000+0  23807-3 0  9995", "line2": "2 33914  74.0911 357.4335 0300799  97.8752  19.4454 13.71990933842286"}}, "geometry": {"type": "Point", "coordinates": [10.5624915899669, 41.139031914475396]}}, {"type": "Feature", "properties": {"norad_id": 33915, "name": "COSMOS 2251 DEB", "group": "cosmos-2251-debris", "lat": -70.85954733574735, "lon": -111.45093124986153, "alt_km": 849.9204451620099, "timestamp": "2025-12-24T05:51:20.002465+00:00", "meta": {"OBJECT_NAME": "COSMOS 2251 DEB", "OBJECT_ID": "1993-036DU", "EPOCH": "2025-12-23T10:48:07.098624", "MEAN_MOTION": 14.35105385, "ECCENTRICITY": 0.01040057, "INCLINATION": 74.043, "RA_OF_ASC_NODE": 14.4781, "ARG_OF_PERICENTER": 104.1211, "MEAN_ANOMALY": 14.7488, "EPHEMERIS_TYPE": 0, "CLASSIFICATION_TYPE": "U", "NORAD_CAT_ID": 33915, "ELEMENT_SET_NO": 999, "REV_AT_EPOCH": 87911, "BSTAR": 0.00031536126, "MEAN_MOTION_DOT": 9.31e-06, "MEAN_MOTION_DDOT": 0}, "tle": {"line1": "1 33915U 93036DU  25357.45008216  .00000931  00000+0  31536-3 0  9993", "line2": "2 33915  74.0430  14.4781 0104005 104.1211  14.7488 14.35105385879119"}}, "geometry": {"type": "Point", "coordinates": [-111.45093124986153, -70.85954733574735]}}, {"type": "Feature", "properties": {"norad_id": 33916, "name": "COSMOS 2251 DEB", "group": "cosmos-2251-debris", "lat": 8.29502970462501, "lon": -160.70312952733636, "alt_km": 779.7535074413345, "timestamp": "2025-12-24T05:51:20.002475+00:00", "meta": {"OBJECT_NAME": "COSMOS 2251 DEB", "OBJECT_ID": "1993-036DV", "EPOCH": "2025-12-23T12:03:54.466272", "MEAN_MOTION": 13.68624662, "ECCENTRICITY": 0.0324861, "INCLINATION": 74.0519, "RA_OF_ASC_NODE": 22.9036, "ARG_OF_PERICENTER": 192.7435, "MEAN_ANOMALY": 288.8859, "EPHEMERIS_TYPE": 0, "CLASSIFICATION_TYPE": "U", "NORAD_CAT_ID": 33916, "ELEMENT_SET_NO": 999, "REV_AT_EPOCH": 84038, "BSTAR": 0.00030302203, "MEAN_MOTION_DOT": 3.54e-06, "MEAN_MOTION_DDOT": 0}, "tle": {"line1": "1 33916U 93036DV  25357.50271373  .00000354  00000+0  30302-3 0  9995", "line2": "2 33916  74.0519  22.9036 0324861 192.7435 288.8859 13.68624662840382"}}, "geometry": {"type": "Point", "coordinates": [-160.70312952733636, 8.29502970462501]}}]}